H1 CPF 01  gfz 2022 08 14 00  7261 tandemx   
H2 1003001  6202 36605    2022 08 14 00 59 42 2022 08 19 00 00 42   120 1 1  0 0 0
H9
10 0 59805  69822.000000  0   -1124035.785   -523909.268   6764864.255
10 0 59805  69942.000000  0   -1956516.305   -171326.581   6591585.657
10 0 59805  70062.000000  0   -2748531.194    198461.589   6302452.597
10 0 59805  70182.000000  0   -3486007.647    578169.563   5902515.757
10 0 59805  70302.000000  0   -4155943.888    960097.443   5398770.329
10 0 59805  70422.000000  0   -4746643.732   1336285.098   4800039.691
10 0 59805  70542.000000  0   -5247927.993   1698676.458   4116826.372
10 0 59805  70662.000000  0   -5651318.200   2039289.959   3361131.122
10 0 59805  70782.000000  0   -5950188.129   2350391.670   2546243.905
10 0 59805  70902.000000  0   -6139880.938   2624667.322   1686509.680
10 0 59805  71022.000000  0   -6217788.677   2855389.372    797071.754
10 0 59805  71142.000000  0   -6183389.720   3036574.231   -106402.656
10 0 59805  71262.000000  0   -6038243.949   3163125.513  -1008006.766
10 0 59805  71382.000000  0   -5785946.048   3230959.338  -1891883.231
10 0 59805  71502.000000  0   -5432037.933   3237109.437  -2742512.085
10 0 59805  71622.000000  0   -4983881.350   3179808.183  -3544989.657
10 0 59805  71742.000000  0   -4450496.479   3058542.486  -4285292.362
10 0 59805  71862.000000  0   -3842370.709   2874083.530  -4950519.832
10 0 59805  71982.000000  0   -3171243.586   2628490.028  -5529113.831
10 0 59805  72102.000000  0   -2449874.307   2325086.337  -6011049.315
10 0 59805  72222.000000  0   -1691795.475   1968416.178  -6387998.650
10 0 59805  72342.000000  0    -911057.272   1564171.851  -6653463.312
10 0 59805  72462.000000  0    -121969.979   1119102.261  -6802874.618
10 0 59805  72582.000000  0     661152.761    640900.767  -6833663.258
10 0 59805  72702.000000  0    1424246.885    138075.085  -6745300.442
10 0 59805  72822.000000  0    2153745.824   -380201.091  -6539305.741
10 0 59805  72942.000000  0    2836815.707   -904250.908  -6219223.352
10 0 59805  73062.000000  0    3461578.255  -1424070.237  -5790567.765
10 0 59805  73182.000000  0    4017316.092  -1929513.357  -5260738.463
10 0 59805  73302.000000  0    4494660.115  -2410488.422  -4638904.223
10 0 59805  73422.000000  0    4885752.910  -2857157.827  -3935854.982
10 0 59805  73542.000000  0    5184385.380  -3260138.853  -3163824.557
10 0 59805  73662.000000  0    5386104.810  -3610701.070  -2336285.194
10 0 59805  73782.000000  0    5488289.961  -3900955.816  -1467715.589
10 0 59805  73902.000000  0    5490190.525  -4124033.188   -573347.589
10 0 59805  74022.000000  0    5392929.897  -4274241.965    331104.695
10 0 59805  74142.000000  0    5199470.226  -4347208.319   1229728.043
10 0 59805  74262.000000  0    4914538.747  -4339988.417   2106699.209
10 0 59805  74382.000000  0    4544518.695  -4251151.170   2946572.638
10 0 59805  74502.000000  0    4097307.798  -4080830.015   3734559.664
10 0 59805  74622.000000  0    3582148.179  -3830743.737   4456794.796
10 0 59805  74742.000000  0    3009430.275  -3504184.250   5100583.346
10 0 59805  74862.000000  0    2390478.175  -3105971.804   5654624.008
10 0 59805  74982.000000  0    1737321.018  -2642380.203   6109205.200
10 0 59805  75102.000000  0    1062454.639  -2121033.241   6456369.813
10 0 59805  75222.000000  0     378600.075  -1550775.749   6690048.321
10 0 59805  75342.000000  0    -301537.218   -941520.973   6806159.015
10 0 59805  75462.000000  0    -965502.769   -304076.468   6802674.561
10 0 59805  75582.000000  0   -1601320.090    350047.629   6679654.889
10 0 59805  75702.000000  0   -2197705.973   1008845.965   6439246.273
10 0 59805  75822.000000  0   -2744270.699   1660037.400   6085646.318
10 0 59805  75942.000000  0   -3231700.110   2291293.212   5625035.465
10 0 59805  76062.000000  0   -3651917.491   2890471.299   5065475.750
10 0 59805  76182.000000  0   -3998221.997   3445851.925   4416775.322
10 0 59805  76302.000000  0   -4265400.615   3946370.100   3690321.570
10 0 59805  76422.000000  0   -4449811.648   4381840.675   2898884.378
10 0 59805  76542.000000  0   -4549436.385   4743170.651   2056391.255
10 0 59805  76662.000000  0   -4563897.212   5022552.977   1177678.838
10 0 59805  76782.000000  0   -4494443.123   5213636.051    278226.013
10 0 59805  76902.000000  0   -4343902.928   5311666.343   -626125.827
10 0 59805  77022.000000  0   -4116605.649   5313600.760  -1519462.164
10 0 59805  77142.000000  0   -3818268.325   5218180.612  -2386085.486
10 0 59805  77262.000000  0   -3455857.830   5025971.514  -3210797.506
10 0 59805  77382.000000  0   -3037429.024   4739364.697  -3979170.580
10 0 59805  77502.000000  0   -2571944.431   4362541.526  -4677799.388
10 0 59805  77622.000000  0   -2069080.600   3901404.377  -5294529.524
10 0 59805  77742.000000  0   -1539026.648   3363477.094  -5818661.110
10 0 59805  77862.000000  0    -992277.960   2757774.875  -6241125.821
10 0 59805  77982.000000  0    -439429.353   2094646.833  -6554632.674
10 0 59805  78102.000000  0     109027.166   1385596.666  -6753781.864
10 0 59805  78222.000000  0     642896.454    643083.788  -6835148.360
10 0 59805  78342.000000  0    1152465.467   -119691.849  -6797335.237
10 0 59805  78462.000000  0    1628676.013   -889020.159  -6640994.192
10 0 59805  78582.000000  0    2063281.271  -1650920.918  -6368814.411
10 0 59805  78702.000000  0    2448986.237  -2391391.062  -5985481.672
10 0 59805  78822.000000  0    2779569.543  -3096656.622  -5497607.442
10 0 59805  78942.000000  0    3049986.133  -3753428.677  -4913626.767
10 0 59805  79062.000000  0    3256446.580  -4349155.106  -4243661.295
10 0 59805  79182.000000  0    3396471.382  -4872262.197  -3499354.207
10 0 59805  79302.000000  0    3468921.757  -5312385.614  -2693678.257
10 0 59805  79422.000000  0    3474003.786  -5660584.963  -1840714.806
10 0 59805  79542.000000  0    3413245.173  -5909533.139   -955408.788
10 0 59805  79662.000000  0    3289445.160  -6053678.078    -53304.120
10 0 59805  79782.000000  0    3106596.644  -6089369.822    849735.711
10 0 59805  79902.000000  0    2869784.266  -6014951.138   1737813.762
10 0 59805  80022.000000  0    2585060.339  -5830807.787   2595290.057
10 0 59805  80142.000000  0    2259300.196  -5539375.677   3407065.435
10 0 59805  80262.000000  0    1900042.769  -5145107.580   4158852.862
10 0 59805  80382.000000  0    1515320.285  -4654400.562   4837433.008
10 0 59805  80502.000000  0    1113481.858  -4075484.839   5430887.899
10 0 59805  80622.000000  0     703013.632  -3418277.197   5928810.270
10 0 59805  80742.000000  0     292359.946  -2694201.346   6322481.032
10 0 59805  80862.000000  0    -110248.968  -1915982.995   6605014.848
10 0 59805  80982.000000  0    -496959.952  -1097422.862   6771474.090
10 0 59805  81102.000000  0    -860448.706   -253150.372   6818951.202
10 0 59805  81222.000000  0   -1194057.472    601638.905   6746616.612
10 0 59805  81342.000000  0   -1491916.547   1451456.509   6555731.959
10 0 59805  81462.000000  0   -1749047.416   2280800.865   6249629.391
10 0 59805  81582.000000  0   -1961446.624   3074439.910   5833657.118
10 0 59805  81702.000000  0   -2126148.441   3817692.075   5315090.996
10 0 59805  81822.000000  0   -2241265.905   4496701.251   4703014.336
10 0 59805  81942.000000  0   -2306009.628   5098701.674   4008164.522
10 0 59805  82062.000000  0   -2320683.172   5612266.150   3242748.404
10 0 59805  82182.000000  0   -2286655.140   6027531.523   2420228.349
10 0 59805  82302.000000  0   -2206308.391   6336396.320   1555083.944
10 0 59805  82422.000000  0   -2082967.113   6532686.256    662552.623
10 0 59805  82542.000000  0   -1920803.610   6612282.645   -241645.306
10 0 59805  82662.000000  0   -1724727.535   6573210.762  -1141591.895
10 0 59805  82782.000000  0   -1500259.541   6415685.245  -2021463.213
10 0 59805  82902.000000  0   -1253392.020   6142106.250  -2865817.190
10 0 59805  83022.000000  0    -990442.889   5757012.763  -3659867.694
10 0 59805  83142.000000  0    -717905.806   5266996.946  -4389744.137
10 0 59805  83262.000000  0    -442300.306   4680578.933  -5042731.567
10 0 59805  83382.000000  0    -170024.860   4008047.627  -5607486.164
10 0 59805  83502.000000  0      92783.972   3261270.355  -6074224.579
10 0 59805  83622.000000  0     340382.793   2453475.136  -6434882.852
10 0 59805  83742.000000  0     567539.973   1599012.553  -6683243.475
10 0 59805  83862.000000  0     769640.846    713101.616  -6815032.640
10 0 59805  83982.000000  0     942777.153   -188438.082  -6827985.827
10 0 59805  84102.000000  0    1083819.645  -1089463.671  -6721882.106
10 0 59805  84222.000000  0    1190472.767  -1973790.705  -6498545.706
10 0 59805  84342.000000  0    1261311.386  -2825475.310  -6161818.347
10 0 59805  84462.000000  0    1295799.529  -3629096.427  -5717502.480
10 0 59805  84582.000000  0    1294288.828  -4370034.712  -5173271.333
10 0 59805  84702.000000  0    1257998.635  -5034739.338  -4538546.398
10 0 59805  84822.000000  0    1188977.295  -5610980.767  -3824346.342
10 0 59805  84942.000000  0    1090044.063  -6088084.970  -3043104.992
10 0 59805  85062.000000  0     964713.850  -6457141.985  -2208461.500
10 0 59805  85182.000000  0     817106.131  -6711185.028  -1335025.450
10 0 59805  85302.000000  0     651839.033  -6845334.184   -438119.804
10 0 59805  85422.000000  0     473911.409  -6856899.606    466492.524
10 0 59805  85542.000000  0     288576.089  -6745442.329   1362892.203
10 0 59805  85662.000000  0     101207.317  -6512790.724   2235292.382
10 0 59805  85782.000000  0     -82834.249  -6163010.569   3068326.924
10 0 59805  85902.000000  0    -258335.412  -5702327.743   3847329.880
10 0 59805  86022.000000  0    -420360.158  -5139008.534   4558597.413
10 0 59805  86142.000000  0    -564371.275  -4483202.413   5189631.293
10 0 59805  86262.000000  0    -686340.924  -3746749.250   5729357.942
99
